[{"OBJECT_NAME":"STARLINK-2565","OBJECT_ID":"2021-036E","EPOCH":"2026-03-09T07:12:35.222688","MEAN_MOTION":15.06407119,"ECCENTRICITY":0.0001513,"INCLINATION":53.0543,"RA_OF_ASC_NODE":98.3658,"ARG_OF_PERICENTER":91.9906,"MEAN_ANOMALY":268.1256,"EPHEMERIS_TYPE":0,"CLASSIFICATION_TYPE":"U","NORAD_CAT_ID":48280,"ELEMENT_SET_NO":999,"REV_AT_EPOCH":26804,"BSTAR":0.00020570937,"MEAN_MOTION_DOT":2.784e-5,"MEAN_MOTION_DDOT":0},{"OBJECT_NAME":"AISAT","OBJECT_ID":"2014-034B","EPOCH":"2026-03-09T16:29:04.722144","MEAN_MOTION":15.06703825,"ECCENTRICITY":0.00089151,"INCLINATION":98.2441,"RA_OF_ASC_NODE":333.9816,"ARG_OF_PERICENTER":189.0234,"MEAN_ANOMALY":171.0832,"EPHEMERIS_TYPE":0,"CLASSIFICATION_TYPE":"U","NORAD_CAT_ID":40054,"ELEMENT_SET_NO":999,"REV_AT_EPOCH":63221,"BSTAR":0.00094770343,"MEAN_MOTION_DOT":0.00014038,"MEAN_MOTION_DDOT":0}]
